162P/Siding Spring,e,27.7400,31.0875,357.1321,3.084984,0.1818966,0.58564012,201.1415,07/17.0/2018,2000,g 12.0,4.0
# From MPC102101
163P/NEAT,e,12.7076,102.0965,349.7349,3.769954,0.1346480,0.45193027,308.2507,07/17.0/2018,2000,g 14.5,4.0
# From MPC106349
164P/Christensen,e,16.2529,88.3055,325.9293,3.661410,0.1406797,0.53972712,6.5548,07/17.0/2018,2000,g 11.0,4.0
# From MPC 75721
165P/LINEAR,e,15.9036,0.5906,126.4533,17.92181,0.0129907,0.61591843,85.9667,07/17.0/2018,2000,g 11.5,2.0
# From MPC 75722
166P/NEAT,e,15.3574,64.5412,321.7109,13.86439,0.0190921,0.37996997,113.0704,07/17.0/2018,2000,g  5.5,4.0
# From MPC 75722
167P/CINEOS,e,19.1134,295.7145,343.6258,16.15116,0.0151844,0.27309871,95.6654,07/17.0/2018,2000,g  9.5,2.0
# From MPC102101
168P/Hergenrother,e,21.6177,355.5479,14.8648,3.584711,0.1452188,0.62070191,304.2276,07/17.0/2018,2000,g 15.5,4.0
# From MPC 94676
169P/NEAT,e,11.2956,176.0860,218.0875,2.602204,0.2347967,0.76803137,18.4078,07/17.0/2018,2000,g 16.0,2.0
# From MPC 89012
170P/Christensen,e,10.1249,142.9177,225.7809,4.198127,0.1145832,0.30316074,160.4036,07/17.0/2018,2000,g 12.0,4.0
# From MPC102102
171P/Spahr,e,21.9327,101.6976,347.1570,3.558469,0.1468281,0.50196266,333.4636,07/17.0/2018,2000,g 13.5,4.0
# From MPC 93588
172P/Yeung,e,11.2370,30.8868,209.1868,4.207328,0.1142075,0.20672860,56.0332,07/17.0/2018,2000,g 13.0,4.0
# From MPC 75722
173P/Mueller,e,16.4962,100.4144,29.5905,5.694903,0.0725228,0.26084201,269.2446,07/17.0/2018,2000,g  7.5,4.0
# From MPC 92985
174P/Echeclus,e,4.3440,173.3229,162.7838,10.68485,0.0282196,0.45602118,33.3795,07/17.0/2018,2000,g  9.4,2.0
# From MPC102102
175P/Hergenrother,e,6.0765,123.5384,56.1641,3.428843,0.1552325,0.43236918,291.5896,07/17.0/2018,2000,g 14.0,4.0
# From MPC 88331
176P/LINEAR,e,0.2346,345.8879,35.3140,3.194615,0.1726141,0.19269935,84.9813,07/17.0/2018,2000,g 15.1,2.0
# From MPC 75723
177P/Barnard,e,31.3091,272.3070,60.2801,24.34884,0.0082033,0.95453523,35.6418,07/17.0/2018,2000,g 15.0,4.0
# From MPC105242
178P/Hug-Bell,e,11.0503,102.9380,297.2631,3.645050,0.1416279,0.48063281,256.5451,07/17.0/2018,2000,g 13.5,4.0
# From MPC 75723
179P/Jedicke,e,19.8877,115.5214,296.2518,5.948887,0.0679283,0.30496922,264.1917,07/17.0/2018,2000,g  2.5,8.0
# From MPC 10028
180P/NEAT,e,16.8689,84.5587,94.9164,3.858553,0.1300371,0.35425532,123.2210,07/17.0/2018,2000,g 11.0,4.0
# From MPC 89012
181P/Shoemaker-Levy,e,17.4893,35.4075,336.3185,3.868510,0.1295354,0.70036738,195.1321,07/17.0/2018,2000,g 11.5,4.0
# From MPC 88331
182P/LONEOS,e,16.2471,72.7924,53.8280,2.960285,0.1935102,0.65984197,89.2684,07/17.0/2018,2000,g 18.0,4.0
# From MPC110085
183P/Korlevic-Juric,e,18.7434,5.8446,161.4499,4.493415,0.1034759,0.13812744,25.4812,07/17.0/2018,2000,g 12.5,2.0
# From MPC105242
184P/Lovas,e,4.5854,173.5197,186.5388,3.783506,0.1339253,0.55298305,248.5915,07/17.0/2018,2000,g 13.5,4.0
# From MPC109593
185P/Petriew,e,13.9942,214.0991,181.9136,3.101107,0.1804800,0.69888582,30.7422,07/17.0/2018,2000,g 15.0,4.0
# From MPC 10028
186P/Garradd,e,28.4119,327.1886,283.6992,5.004676,0.0880319,0.12290900,334.2892,07/17.0/2018,2000,g  7.5,4.0
# From MPC104795
187P/LINEAR,e,13.6066,109.9622,133.2102,4.596357,0.1000192,0.15571198,5.1840,07/17.0/2018,2000,g  9.0,4.0
# From MPC106349
188P/LINEAR-Mueller,e,10.5116,358.9694,26.7097,4.380775,0.1074924,0.41465183,55.3807,07/17.0/2018,2000,g 11.5,4.0
# From MPC106349
189P/NEAT,e,20.0678,281.7436,16.2272,2.947377,0.1947828,0.58836387,67.2068,07/17.0/2018,2000,g 19.0,4.0
# From MPC 75724
190P/Mueller,e,2.1727,335.5505,50.3890,4.239041,0.1129283,0.52025274,93.7853,07/17.0/2018,2000,g 13.0,4.0
# From MPC 92277
191P/McNaught,e,8.7265,98.9728,283.8083,3.621446,0.1430148,0.39869271,221.5384,07/17.0/2018,2000,g 13.0,4.0
# From MPC 75724
192P/Shoemaker-Levy,e,24.5118,51.6749,312.8721,6.478605,0.0597698,0.77189374,231.9955,07/17.0/2018,2000,g 15.0,4.0
# From MPC 91618
193P/LINEAR-NEAT,e,10.6868,335.1945,8.3379,3.574190,0.1458604,0.39369768,194.2214,07/17.0/2018,2000,g 14.0,4.0
# From MPC 98566
194P/LINEAR,e,11.1359,351.9176,130.6133,3.993355,0.1235086,0.57576242,107.0612,07/17.0/2018,2000,g 16.0,4.0
# From MPC 75724
195P/Hill,e,36.3430,243.0840,249.7067,6.489685,0.0596168,0.31426777,206.7660,07/17.0/2018,2000,g  8.5,4.0
# From MPC 92985
196P/Tichy,e,19.3513,24.2518,12.4493,3.791111,0.1335225,0.43066451,150.9437,07/17.0/2018,2000,g 13.5,4.0
# From MPC 94676
197P/LINEAR,e,25.5565,66.3928,188.6893,2.865741,0.2031649,0.63012815,34.3669,07/17.0/2018,2000,g 16.5,2.0
# From MPC 65937
198P/ODAS,e,1.3388,358.3456,69.2348,3.602199,0.1441626,0.44314613,338.3864,07/17.0/2018,2000,g 12.5,4.0
# From MPC 75725
199P/Shoemaker,e,24.9312,92.3924,191.4425,5.905750,0.0686739,0.50536375,233.1097,07/17.0/2018,2000,g 10.0,4.0
# From MPC 75725
200P/Larsen,e,12.1058,234.8009,133.9605,4.931823,0.0899897,0.33138561,326.1256,07/17.0/2018,2000,g  9.0,4.0
# From MPC 93588
201P/LONEOS,e,6.9933,34.9392,24.9155,3.434974,0.1548171,0.62231745,197.1685,07/17.0/2018,2000,g 14.0,4.0
# From MPC103849
202P/Scotti,e,2.1885,194.4897,256.8943,3.796697,0.1332279,0.33277753,101.4913,07/17.0/2018,2000,g 13.5,4.0
# From MPC 75725
203P/Korlevic,e,2.9733,290.3654,154.9874,4.666973,0.0977577,0.31465692,301.5746,07/17.0/2018,2000,g 14.5,2.0
# From MPC 98566
204P/LINEAR-NEAT,e,6.6034,108.8645,354.9157,3.647484,0.1414862,0.47436124,134.1417,07/17.0/2018,2000,g 14.0,4.0
# From MPC 98566
205P/Giacobini,e,15.2883,179.6083,154.1605,3.544628,0.1476890,0.56704415,171.3533,07/17.0/2018,2000,g 13.0,4.0
# From MPC 75725
206P/Barnard-Boattini,e,33.8658,202.6805,189.3288,3.483181,0.1516143,0.55259396,214.2759,07/17.0/2018,2000,g 19.0,4.0
# From MPC 75725
207P/NEAT,e,10.1590,200.5091,271.2274,3.871705,0.1293751,0.75848671,96.4815,07/17.0/2018,2000,g 16.0,4.0
# From MPC101100
208P/McMillan,e,4.4079,36.4075,310.4069,4.050492,0.1209045,0.37230930,90.1267,07/17.0/2018,2000,g 12.5,4.0
# From MPC 90771
209P/LINEAR,e,21.2590,62.7721,152.4862,2.961967,0.1933454,0.67331643,296.0435,07/17.0/2018,2000,g 17.0,2.0
# From MPC105242
210P/Christensen,e,10.2444,93.8253,345.8181,3.170380,0.1745972,0.83237653,249.7747,07/17.0/2018,2000,g 13.5,4.0
# From MPC 96868
211P/Hill,e,18.8995,117.1379,4.2320,3.554250,0.1470896,0.34050341,132.7154,07/17.0/2018,2000,g 12.5,4.0
# From MPC104795
212P/NEAT,e,22.4864,98.7505,15.0426,3.912807,0.1273419,0.58111080,85.8785,07/17.0/2018,2000,g 17.0,2.0
# From MPC110085
213P/Van Ness,e,10.3774,311.3191,5.5637,3.348522,0.1608512,0.40769732,47.5439,07/17.0/2018,2000,g 10.5,4.0
# From MPC 92986
214P/LINEAR,e,15.1993,348.2742,190.2995,3.613600,0.1434809,0.48685385,140.2533,07/17.0/2018,2000,g 13.0,4.0
# From MPC102102
215P/NEAT,e,10.5883,56.7266,261.2654,4.349048,0.1086708,0.17060615,307.4097,07/17.0/2018,2000,g 11.0,4.0
# From MPC 10028
216P/LINEAR,e,9.0468,359.8442,151.4580,3.872227,0.1293490,0.44527470,100.5509,07/17.0/2018,2000,g 13.0,4.0
# From MPC108598
217P/LINEAR,e,12.8580,125.4530,246.9316,3.954895,0.1253146,0.68771056,45.7969,07/17.0/2018,2000,g 12.0,4.0
# From MPC105242
218P/LINEAR,e,2.7253,176.0150,59.7032,3.095883,0.1809370,0.62202169,213.5196,07/17.0/2018,2000,g 16.0,4.0
# From MPC 10028
219P/LINEAR,e,11.5297,231.0234,107.3707,3.652984,0.1411667,0.35273855,72.1975,07/17.0/2018,2000,g 11.0,4.0
# From MPC105242
220P/McNaught,e,8.1269,150.1100,180.5932,3.114573,0.1793107,0.50144939,202.5524,07/17.0/2018,2000,g 15.0,4.0
# From MPC 93589
221P/LINEAR,e,11.4288,229.7500,39.9451,3.459606,0.1531666,0.49253331,168.5906,07/17.0/2018,2000,g 14.5,4.0
# From MPC 92277
222P/LINEAR,e,5.0996,6.8553,346.1995,2.899167,0.1996614,0.71458384,295.5157,07/17.0/2018,2000,g 20.0,4.0
# From MPC102102
223P/Skiff,e,27.0158,346.7933,37.8297,4.156971,0.1162890,0.41522821,337.4056,07/17.0/2018,2000,g 12.0,4.0
# From MPC 75727
224P/LINEAR-NEAT,e,13.4199,40.4773,16.6870,3.421631,0.1557236,0.41433769,122.0140,07/17.0/2018,2000,g 15.5,4.0
# From MPC 75727
225P/LINEAR,e,21.3338,14.1842,3.9126,3.652890,0.1411722,0.63721211,98.7185,07/17.0/2018,2000,g 18.0,4.0
# From MPC106349
226P/Pigott-LINEAR-Kowalski,e,44.0047,54.0060,341.1142,3.768703,0.1347151,0.52843732,91.6194,07/17.0/2018,2000,g 12.5,4.0
# From MPC102956
227P/Catalina-LINEAR,e,6.5261,49.7960,90.2100,3.585643,0.1451622,0.50185720,56.5785,07/17.0/2018,2000,g 16.5,2.0
# From MPC107687
228P/LINEAR,e,7.9106,31.0086,115.3044,4.176591,0.1154705,0.17750782,290.4047,07/17.0/2018,2000,g 14.5,2.0
# From MPC106349
229P/Gibbs,e,26.0690,157.8988,224.0981,3.934794,0.1262761,0.37599232,53.3429,07/17.0/2018,2000,g 13.0,4.0
# From MPC110497
230P/LINEAR,e,14.8920,109.4775,311.9029,3.407246,0.1567107,0.56518406,151.9768,07/17.0/2018,2000,g 13.0,4.0
# From MPC102102
231P/LINEAR-NEAT,e,12.3325,133.0291,42.6984,4.018765,0.1223391,0.24786269,319.3850,07/17.0/2018,2000,g 14.5,2.0
# From MPC 75728
232P/Hill,e,14.6311,56.0309,53.5660,4.487135,0.1036932,0.33490763,332.6606,07/17.0/2018,2000,g 11.5,4.0
# From MPC 92986
233P/La Sagra,e,11.2843,74.9272,27.1073,3.029547,0.1869122,0.41136759,208.9615,07/17.0/2018,2000,g 15.0,4.0
# From MPC110497
234P/LINEAR,e,11.5151,179.6602,357.8267,3.811892,0.1324321,0.25365968,54.5115,07/17.0/2018,2000,g 12.0,4.0
# From MPC110497
235P/LINEAR,e,8.9036,204.4601,333.8034,3.993520,0.1235009,0.31582477,14.9794,07/17.0/2018,2000,g 12.0,4.0
# From MPC107688
236P/LINEAR,e,16.3340,245.6706,119.2534,3.733529,0.1366233,0.50788472,32.6348,07/17.0/2018,2000,g 14.0,4.0
# From MPC109593
237P/LINEAR,e,14.0249,245.4225,25.0961,3.511614,0.1497766,0.43473988,96.3255,07/17.0/2018,2000,g 14.5,2.0
# From MPC107688
238P/Read,e,1.2645,51.6462,324.8335,3.163435,0.1751724,0.25231596,110.8441,07/17.0/2018,2000,g 14.5,4.0
# From MPC 75729
239P/LINEAR,e,11.3055,255.9083,220.3820,4.471005,0.1042549,0.63108827,341.5301,07/17.0/2018,2000,g 17.5,2.0
# From MPC109593
240P/NEAT,e,23.5041,74.9264,352.0923,3.871964,0.1293621,0.44891928,8.0385,07/17.0/2018,2000,g 11.0,4.0
# From MPC 75729
241P/LINEAR,e,20.8914,305.7009,110.5235,4.960963,0.0891980,0.60857877,261.3570,07/17.0/2018,2000,g 13.5,4.0
# From MPC 81861
